{
  "type": "FeatureCollection",
  "features": [
    {
      "type": "Feature",
      "properties": {
        "norad_id": 61182,
        "name": "GSAT0232 (GALILEO 32)",
        "group": "gnss",
        "lat": 10.62358083273052,
        "lon": -125.97051738148389,
        "alt_km": 23226.864295919924,
        "timestamp": "2025-12-08T15:42:50.034441+00:00",
        "meta_object_name": "GSAT0232 (GALILEO 32)",
        "meta_object_id": "2024-167A",
        "meta_epoch": "2025-12-08T04:48:12.604896",
        "meta_mean_motion": 1.70473279,
        "meta_eccentricity": 0.00020528,
        "meta_inclination": 55.2426,
        "meta_ra_of_asc_node": 226.5554,
        "meta_arg_of_pericenter": 212.5072,
        "meta_mean_anomaly": 241.5423,
        "meta_ephemeris_type": 0,
        "meta_classification_type": "U",
        "meta_norad_cat_id": 61182,
        "meta_element_set_no": 999,
        "meta_rev_at_epoch": 762,
        "meta_bstar": 0,
        "meta_mean_motion_dot": 1.9e-07,
        "meta_mean_motion_ddot": 0,
        "tle_line1": "1 61182U 24167A   25342.20014589  .00000019  00000+0  00000+0 0  9991",
        "tle_line2": "2 61182  55.2426 226.5554 0002052 212.5072 241.5423  1.70473279  7627"
      },
      "geometry": {
        "type": "Point",
        "coordinates": [
          -125.97051738148389,
          10.62358083273052
        ]
      }
    },
    {
      "type": "Feature",
      "properties": {
        "norad_id": 61183,
        "name": "GSAT0226 (GALILEO 31)",
        "group": "gnss",
        "lat": 41.88480988379556,
        "lon": 8.083416332943269,
        "alt_km": 23214.872553085417,
        "timestamp": "2025-12-08T15:42:50.034452+00:00",
        "meta_object_name": "GSAT0226 (GALILEO 31)",
        "meta_object_id": "2024-167B",
        "meta_epoch": "2025-12-06T09:26:36.340224",
        "meta_mean_motion": 1.70473292,
        "meta_eccentricity": 7.913e-05,
        "meta_inclination": 55.2417,
        "meta_ra_of_asc_node": 226.6105,
        "meta_arg_of_pericenter": 126.2936,
        "meta_mean_anomaly": 51.6212,
        "meta_ephemeris_type": 0,
        "meta_classification_type": "U",
        "meta_norad_cat_id": 61183,
        "meta_element_set_no": 999,
        "meta_rev_at_epoch": 756,
        "meta_bstar": 0,
        "meta_mean_motion_dot": 3.3e-07,
        "meta_mean_motion_ddot": 0,
        "tle_line1": "1 61183U 24167B   25340.39347616  .00000033  00000+0  00000+0 0  9996",
        "tle_line2": "2 61183  55.2417 226.6105 0000791 126.2936  51.6212  1.70473292  7563"
      },
      "geometry": {
        "type": "Point",
        "coordinates": [
          8.083416332943269,
          41.88480988379556
        ]
      }
    },
    {
      "type": "Feature",
      "properties": {
        "norad_id": 61186,
        "name": "BEIDOU-3 M25 (C47)",
        "group": "gnss",
        "lat": -42.574923656004195,
        "lon": 169.51768970223603,
        "alt_km": 21525.434536213532,
        "timestamp": "2025-12-08T15:42:50.034463+00:00",
        "meta_object_name": "BEIDOU-3 M25 (C47)",
        "meta_object_id": "2024-168B",
        "meta_epoch": "2025-12-08T07:21:43.112736",
        "meta_mean_motion": 1.86229841,
        "meta_eccentricity": 0.00054456,
        "meta_inclination": 54.6459,
        "meta_ra_of_asc_node": 308.8729,
        "meta_arg_of_pericenter": 295.6588,
        "meta_mean_anomaly": 67.0803,
        "meta_ephemeris_type": 0,
        "meta_classification_type": "U",
        "meta_norad_cat_id": 61186,
        "meta_element_set_no": 999,
        "meta_rev_at_epoch": 823,
        "meta_bstar": 0,
        "meta_mean_motion_dot": -7.3e-07,
        "meta_mean_motion_ddot": 0,
        "tle_line1": "1 61186U 24168B   25342.30674899 -.00000073  00000+0  00000+0 0  9994",
        "tle_line2": "2 61186  54.6459 308.8729 0005445 295.6588  67.0803  1.86229841  8233"
      },
      "geometry": {
        "type": "Point",
        "coordinates": [
          169.51768970223603,
          -42.574923656004195
        ]
      }
    },
    {
      "type": "Feature",
      "properties": {
        "norad_id": 61187,
        "name": "BEIDOU-3 M27 (C49)",
        "group": "gnss",
        "lat": 8.969394721890755,
        "lon": -44.745230045625696,
        "alt_km": 21522.14053844669,
        "timestamp": "2025-12-08T15:42:50.034474+00:00",
        "meta_object_name": "BEIDOU-3 M27 (C49)",
        "meta_object_id": "2024-168C",
        "meta_epoch": "2025-12-08T04:47:20.536800",
        "meta_mean_motion": 1.86229984,
        "meta_eccentricity": 0.00023097,
        "meta_inclination": 54.6414,
        "meta_ra_of_asc_node": 308.8603,
        "meta_arg_of_pericenter": 333.3276,
        "meta_mean_anomaly": 92.4757,
        "meta_ephemeris_type": 0,
        "meta_classification_type": "U",
        "meta_norad_cat_id": 61187,
        "meta_element_set_no": 999,
        "meta_rev_at_epoch": 570,
        "meta_bstar": 0,
        "meta_mean_motion_dot": -7.3e-07,
        "meta_mean_motion_ddot": 0,
        "tle_line1": "1 61187U 24168C   25342.19954325 -.00000073  00000+0  00000+0 0  9997",
        "tle_line2": "2 61187  54.6414 308.8603 0002309 333.3276  92.4757  1.86229984  5703"
      },
      "geometry": {
        "type": "Point",
        "coordinates": [
          -44.745230045625696,
          8.969394721890755
        ]
      }
    },
    {
      "type": "Feature",
      "properties": {
        "norad_id": 62339,
        "name": "GPS BIII-7  (PRN 01)",
        "group": "gnss",
        "lat": -8.940709593858553,
        "lon": 168.2465735928538,
        "alt_km": 20211.443000504805,
        "timestamp": "2025-12-08T15:42:50.034485+00:00",
        "meta_object_name": "GPS BIII-7  (PRN 01)",
        "meta_object_id": "2024-242A",
        "meta_epoch": "2025-12-07T21:14:38.700960",
        "meta_mean_motion": 2.00567469,
        "meta_eccentricity": 0.00119344,
        "meta_inclination": 54.9247,
        "meta_ra_of_asc_node": 341.9365,
        "meta_arg_of_pericenter": 343.8064,
        "meta_mean_anomaly": 11.4848,
        "meta_ephemeris_type": 0,
        "meta_classification_type": "U",
        "meta_norad_cat_id": 62339,
        "meta_element_set_no": 999,
        "meta_rev_at_epoch": 741,
        "meta_bstar": 0,
        "meta_mean_motion_dot": -8.7e-07,
        "meta_mean_motion_ddot": 0,
        "tle_line1": "1 62339U 24242A   25341.88517015 -.00000087  00000+0  00000+0 0  9991",
        "tle_line2": "2 62339  54.9247 341.9365 0011934 343.8064  11.4848  2.00567469  7410"
      },
      "geometry": {
        "type": "Point",
        "coordinates": [
          168.2465735928538,
          -8.940709593858553
        ]
      }
    },
    {
      "type": "Feature",
      "properties": {
        "norad_id": 62850,
        "name": "NVS-02 (IRNSS-1K)",
        "group": "gnss",
        "lat": -8.807457593624042,
        "lon": 172.9462225403729,
        "alt_km": 37180.98458262548,
        "timestamp": "2025-12-08T15:42:50.034497+00:00",
        "meta_object_name": "NVS-02 (IRNSS-1K)",
        "meta_object_id": "2025-020A",
        "meta_epoch": "2025-12-07T22:51:57.679488",
        "meta_mean_motion": 2.17589284,
        "meta_eccentricity": 0.73477165,
        "meta_inclination": 20.9963,
        "meta_ra_of_asc_node": 329.3929,
        "meta_arg_of_pericenter": 23.1258,
        "meta_mean_anomaly": 357.5725,
        "meta_ephemeris_type": 0,
        "meta_classification_type": "U",
        "meta_norad_cat_id": 62850,
        "meta_element_set_no": 999,
        "meta_rev_at_epoch": 681,
        "meta_bstar": 0.00025477809,
        "meta_mean_motion_dot": 1.19e-06,
        "meta_mean_motion_ddot": 0,
        "tle_line1": "1 62850U 25020A   25341.95275092  .00000119  00000+0  25478-3 0  9993",
        "tle_line2": "2 62850  20.9963 329.3929 7347716  23.1258 357.5725  2.17589284  6810"
      },
      "geometry": {
        "type": "Point",
        "coordinates": [
          172.9462225403729,
          -8.807457593624042
        ]
      }
    },
    {
      "type": "Feature",
      "properties": {
        "norad_id": 63130,
        "name": "COSMOS 2584 (704K)",
        "group": "gnss",
        "lat": 22.816999791057178,
        "lon": 90.60804925600418,
        "alt_km": 19146.422954417838,
        "timestamp": "2025-12-08T15:42:50.034513+00:00",
        "meta_object_name": "COSMOS 2584 (704K)",
        "meta_object_id": "2025-042A",
        "meta_epoch": "2025-12-08T03:39:29.178720",
        "meta_mean_motion": 2.13102925,
        "meta_eccentricity": 0.0007602,
        "meta_inclination": 64.9737,
        "meta_ra_of_asc_node": 79.3022,
        "meta_arg_of_pericenter": 215.9611,
        "meta_mean_anomaly": 144.0025,
        "meta_ephemeris_type": 0,
        "meta_classification_type": "U",
        "meta_norad_cat_id": 63130,
        "meta_element_set_no": 999,
        "meta_rev_at_epoch": 597,
        "meta_bstar": 0,
        "meta_mean_motion_dot": -1.2e-07,
        "meta_mean_motion_ddot": 0,
        "tle_line1": "1 63130U 25042A   25342.15242105 -.00000012  00000+0  00000+0 0  9994",
        "tle_line2": "2 63130  64.9737  79.3022 0007602 215.9611 144.0025  2.13102925  5976"
      },
      "geometry": {
        "type": "Point",
        "coordinates": [
          90.60804925600418,
          22.816999791057178
        ]
      }
    }
  ]
}